[{"OBJECT_NAME":"STARLINK-34546","OBJECT_ID":"2025-142Y","EPOCH":"2026-03-09T22:44:53.642112","MEAN_MOTION":14.98327234,"ECCENTRICITY":0.00023811,"INCLINATION":70.0017,"RA_OF_ASC_NODE":313.6364,"ARG_OF_PERICENTER":265.7036,"MEAN_ANOMALY":94.3851,"EPHEMERIS_TYPE":0,"CLASSIFICATION_TYPE":"U","NORAD_CAT_ID":64718,"ELEMENT_SET_NO":999,"REV_AT_EPOCH":3969,"BSTAR":0.00011740333,"MEAN_MOTION_DOT":1.308e-5,"MEAN_MOTION_DDOT":0},{"OBJECT_NAME":"COSMOS 397 DEB","OBJECT_ID":"1971-015D","EPOCH":"2026-03-09T13:45:21.862944","MEAN_MOTION":13.72086922,"ECCENTRICITY":0.0619447,"INCLINATION":65.8363,"RA_OF_ASC_NODE":222.312,"ARG_OF_PERICENTER":314.4555,"MEAN_ANOMALY":40.7385,"EPHEMERIS_TYPE":0,"CLASSIFICATION_TYPE":"U","NORAD_CAT_ID":5010,"ELEMENT_SET_NO":999,"REV_AT_EPOCH":63519,"BSTAR":0.00085725,"MEAN_MOTION_DOT":3.091e-5,"MEAN_MOTION_DDOT":0}]
